[{"OBJECT_NAME":"UM5-RIBAT","OBJECT_ID":"2024-149CQ","EPOCH":"2026-03-09T19:05:41.327808","MEAN_MOTION":15.00468196,"ECCENTRICITY":0.00032721,"INCLINATION":97.6776,"RA_OF_ASC_NODE":147.9138,"ARG_OF_PERICENTER":87.0399,"MEAN_ANOMALY":273.1199,"EPHEMERIS_TYPE":0,"CLASSIFICATION_TYPE":"U","NORAD_CAT_ID":60554,"ELEMENT_SET_NO":999,"REV_AT_EPOCH":8528,"BSTAR":0.00037992942,"MEAN_MOTION_DOT":4.725e-5,"MEAN_MOTION_DDOT":0},{"OBJECT_NAME":"STARLINK-36035","OBJECT_ID":"2025-298H","EPOCH":"2026-03-09T22:04:54.591456","MEAN_MOTION":14.99141738,"ECCENTRICITY":0.0002157,"INCLINATION":70.0024,"RA_OF_ASC_NODE":13.8096,"ARG_OF_PERICENTER":277.7374,"MEAN_ANOMALY":82.3541,"EPHEMERIS_TYPE":0,"CLASSIFICATION_TYPE":"U","NORAD_CAT_ID":67082,"ELEMENT_SET_NO":999,"REV_AT_EPOCH":1325,"BSTAR":0.00054139033,"MEAN_MOTION_DOT":6.509e-5,"MEAN_MOTION_DDOT":0}]
